[{"OBJECT_NAME":"COSMOS 2251 DEB","OBJECT_ID":"1993-036AGU","EPOCH":"2026-03-26T04:53:29.615136","MEAN_MOTION":14.38417922,"ECCENTRICITY":0.00181241,"INCLINATION":74.0366,"RA_OF_ASC_NODE":68.6229,"ARG_OF_PERICENTER":144.9565,"MEAN_ANOMALY":215.2786,"EPHEMERIS_TYPE":0,"CLASSIFICATION_TYPE":"U","NORAD_CAT_ID":35031,"ELEMENT_SET_NO":999,"REV_AT_EPOCH":66771,"BSTAR":0.00015761665,"MEAN_MOTION_DOT":4.55e-6,"MEAN_MOTION_DDOT":0},{"OBJECT_NAME":"COSMOS 2251 DEB","OBJECT_ID":"1993-036AGV","EPOCH":"2026-03-28T10:57:17.106336","MEAN_MOTION":14.59659675,"ECCENTRICITY":0.00671353,"INCLINATION":73.8517,"RA_OF_ASC_NODE":163.5108,"ARG_OF_PERICENTER":349.5408,"MEAN_ANOMALY":25.9973,"EPHEMERIS_TYPE":0,"CLASSIFICATION_TYPE":"U","NORAD_CAT_ID":35032,"ELEMENT_SET_NO":999,"REV_AT_EPOCH":89216,"BSTAR":0.00067639036,"MEAN_MOTION_DOT":3.293e-5,"MEAN_MOTION_DDOT":0},{"OBJECT_NAME":"COSMOS 2251 DEB","OBJECT_ID":"1993-036AGW","EPOCH":"2026-03-27T08:57:06.958080","MEAN_MOTION":14.51578193,"ECCENTRICITY":0.0012662,"INCLINATION":74.0289,"RA_OF_ASC_NODE":339.5807,"ARG_OF_PERICENTER":64.3398,"MEAN_ANOMALY":295.907,"EPHEMERIS_TYPE":0,"CLASSIFICATION_TYPE":"U","NORAD_CAT_ID":35033,"ELEMENT_SET_NO":999,"REV_AT_EPOCH":67445,"BSTAR":0.00050749,"MEAN_MOTION_DOT":2.007e-5,"MEAN_MOTION_DDOT":0},{"OBJECT_NAME":"COSMOS 2251 DEB","OBJECT_ID":"1993-036AHB","EPOCH":"2026-03-28T08:30:30.064032","MEAN_MOTION":14.26066457,"ECCENTRICITY":0.0111875,"INCLINATION":74.1063,"RA_OF_ASC_NODE":212.706,"ARG_OF_PERICENTER":170.9494,"MEAN_ANOMALY":221.0851,"EPHEMERIS_TYPE":0,"CLASSIFICATION_TYPE":"U","NORAD_CAT_ID":35038,"ELEMENT_SET_NO":999,"REV_AT_EPOCH":87074,"BSTAR":0.001651727,"MEAN_MOTION_DOT":4.193e-5,"MEAN_MOTION_DDOT":0},{"OBJECT_NAME":"COSMOS 2251 DEB","OBJECT_ID":"1993-036AHG","EPOCH":"2026-03-28T06:56:06.549216","MEAN_MOTION":14.82985196,"ECCENTRICITY":0.0086786,"INCLINATION":73.9486,"RA_OF_ASC_NODE":196.5509,"ARG_OF_PERICENTER":15.7759,"MEAN_ANOMALY":344.6089,"EPHEMERIS_TYPE":0,"CLASSIFICATION_TYPE":"U","NORAD_CAT_ID":35043,"ELEMENT_SET_NO":999,"REV_AT_EPOCH":68980,"BSTAR":0.0029832,"MEAN_MOTION_DOT":0.00025957,"MEAN_MOTION_DDOT":0},{"OBJECT_NAME":"COSMOS 2251 DEB","OBJECT_ID":"1993-036AHJ","EPOCH":"2026-03-28T02:13:02.072640","MEAN_MOTION":14.00636343,"ECCENTRICITY":0.01806191,"INCLINATION":73.7174,"RA_OF_ASC_NODE":226.5974,"ARG_OF_PERICENTER":92.9384,"MEAN_ANOMALY":269.2433,"EPHEMERIS_TYPE":0,"CLASSIFICATION_TYPE":"U","NORAD_CAT_ID":35045,"ELEMENT_SET_NO":999,"REV_AT_EPOCH":86118,"BSTAR":0.00057261174,"MEAN_MOTION_DOT":9.57e-6,"MEAN_MOTION_DDOT":0},{"OBJECT_NAME":"COSMOS 2251 DEB","OBJECT_ID":"1993-036AHP","EPOCH":"2026-03-26T06:43:28.650144","MEAN_MOTION":14.4185462,"ECCENTRICITY":0.0016908,"INCLINATION":74.0372,"RA_OF_ASC_NODE":52.4912,"ARG_OF_PERICENTER":120.8059,"MEAN_ANOMALY":239.4763,"EPHEMERIS_TYPE":0,"CLASSIFICATION_TYPE":"U","NORAD_CAT_ID":35060,"ELEMENT_SET_NO":999,"REV_AT_EPOCH":88734,"BSTAR":0.00031017,"MEAN_MOTION_DOT":9.9e-6,"MEAN_MOTION_DDOT":0},{"OBJECT_NAME":"COSMOS 2251 DEB","OBJECT_ID":"1993-036AHQ","EPOCH":"2026-03-28T10:44:01.216320","MEAN_MOTION":14.68782856,"ECCENTRICITY":0.00407712,"INCLINATION":74.0426,"RA_OF_ASC_NODE":101.426,"ARG_OF_PERICENTER":190.4454,"MEAN_ANOMALY":169.5875,"EPHEMERIS_TYPE":0,"CLASSIFICATION_TYPE":"U","NORAD_CAT_ID":35061,"ELEMENT_SET_NO":999,"REV_AT_EPOCH":90126,"BSTAR":0.0005499195,"MEAN_MOTION_DOT":3.218e-5,"MEAN_MOTION_DDOT":0},{"OBJECT_NAME":"COSMOS 2251 DEB","OBJECT_ID":"1993-036AHR","EPOCH":"2026-03-27T21:31:13.532160","MEAN_MOTION":14.24066234,"ECCENTRICITY":0.0126016,"INCLINATION":74.0774,"RA_OF_ASC_NODE":264.5148,"ARG_OF_PERICENTER":237.2578,"MEAN_ANOMALY":121.6374,"EPHEMERIS_TYPE":0,"CLASSIFICATION_TYPE":"U","NORAD_CAT_ID":35062,"ELEMENT_SET_NO":999,"REV_AT_EPOCH":86995,"BSTAR":0.0017542,"MEAN_MOTION_DOT":4.355e-5,"MEAN_MOTION_DDOT":0},{"OBJECT_NAME":"COSMOS 2251 DEB","OBJECT_ID":"1993-036AHU","EPOCH":"2026-03-27T12:06:34.341696","MEAN_MOTION":14.46107911,"ECCENTRICITY":0.0018513,"INCLINATION":74.0221,"RA_OF_ASC_NODE":358.7026,"ARG_OF_PERICENTER":103.7345,"MEAN_ANOMALY":256.5875,"EPHEMERIS_TYPE":0,"CLASSIFICATION_TYPE":"U","NORAD_CAT_ID":35065,"ELEMENT_SET_NO":999,"REV_AT_EPOCH":69865,"BSTAR":0.00036744,"MEAN_MOTION_DOT":1.288e-5,"MEAN_MOTION_DDOT":0},{"OBJECT_NAME":"COSMOS 2251 DEB","OBJECT_ID":"1993-036AJA","EPOCH":"2026-03-28T21:15:53.068032","MEAN_MOTION":15.06110653,"ECCENTRICITY":0.0067254,"INCLINATION":73.932,"RA_OF_ASC_NODE":314.7011,"ARG_OF_PERICENTER":185.8592,"MEAN_ANOMALY":174.1819,"EPHEMERIS_TYPE":0,"CLASSIFICATION_TYPE":"U","NORAD_CAT_ID":35071,"ELEMENT_SET_NO":999,"REV_AT_EPOCH":69133,"BSTAR":0.00073582,"MEAN_MOTION_DOT":0.00011297,"MEAN_MOTION_DDOT":0},{"OBJECT_NAME":"COSMOS 2251 DEB","OBJECT_ID":"1993-036AJC","EPOCH":"2026-03-28T18:44:30.363936","MEAN_MOTION":15.11855389,"ECCENTRICITY":0.001504,"INCLINATION":73.9912,"RA_OF_ASC_NODE":112.5294,"ARG_OF_PERICENTER":239.2898,"MEAN_ANOMALY":120.6813,"EPHEMERIS_TYPE":0,"CLASSIFICATION_TYPE":"U","NORAD_CAT_ID":35073,"ELEMENT_SET_NO":999,"REV_AT_EPOCH":69075,"BSTAR":0.0033163,"MEAN_MOTION_DOT":0.00057294,"MEAN_MOTION_DDOT":0},{"OBJECT_NAME":"COSMOS 2251 DEB","OBJECT_ID":"1993-036AJN","EPOCH":"2026-03-28T16:54:10.189440","MEAN_MOTION":14.38442648,"ECCENTRICITY":0.0015469,"INCLINATION":74.0476,"RA_OF_ASC_NODE":69.2971,"ARG_OF_PERICENTER":127.7618,"MEAN_ANOMALY":53.9489,"EPHEMERIS_TYPE":0,"CLASSIFICATION_TYPE":"U","NORAD_CAT_ID":35284,"ELEMENT_SET_NO":999,"REV_AT_EPOCH":67049,"BSTAR":0.00016566,"MEAN_MOTION_DOT":4.8e-6,"MEAN_MOTION_DDOT":0},{"OBJECT_NAME":"COSMOS 2251 DEB","OBJECT_ID":"1993-036AJR","EPOCH":"2026-03-28T17:52:42.144672","MEAN_MOTION":14.36471222,"ECCENTRICITY":0.0017587,"INCLINATION":74.028,"RA_OF_ASC_NODE":81.3309,"ARG_OF_PERICENTER":160.9767,"MEAN_ANOMALY":20.8944,"EPHEMERIS_TYPE":0,"CLASSIFICATION_TYPE":"U","NORAD_CAT_ID":35287,"ELEMENT_SET_NO":999,"REV_AT_EPOCH":88414,"BSTAR":0.00012548,"MEAN_MOTION_DOT":3.42e-6,"MEAN_MOTION_DDOT":0},{"OBJECT_NAME":"COSMOS 2251 DEB","OBJECT_ID":"1993-036AJS","EPOCH":"2026-03-28T12:14:25.605312","MEAN_MOTION":14.66922923,"ECCENTRICITY":0.0037132,"INCLINATION":73.95,"RA_OF_ASC_NODE":170.2611,"ARG_OF_PERICENTER":12.5866,"MEAN_ANOMALY":347.6221,"EPHEMERIS_TYPE":0,"CLASSIFICATION_TYPE":"U","NORAD_CAT_ID":35288,"ELEMENT_SET_NO":999,"REV_AT_EPOCH":89428,"BSTAR":0.00094606,"MEAN_MOTION_DOT":5.319e-5,"MEAN_MOTION_DDOT":0},{"OBJECT_NAME":"COSMOS 2251 DEB","OBJECT_ID":"1993-036AJU","EPOCH":"2026-03-28T14:10:48.653760","MEAN_MOTION":14.84189122,"ECCENTRICITY":0.0006318,"INCLINATION":74.0033,"RA_OF_ASC_NODE":209.7641,"ARG_OF_PERICENTER":301.1186,"MEAN_ANOMALY":58.9372,"EPHEMERIS_TYPE":0,"CLASSIFICATION_TYPE":"U","NORAD_CAT_ID":35290,"ELEMENT_SET_NO":999,"REV_AT_EPOCH":89526,"BSTAR":0.0021772,"MEAN_MOTION_DOT":0.00018233,"MEAN_MOTION_DDOT":0}]
